STARLINK-3126           
1 49444U 21104AN  26068.68160267 -.00000137  00000+0  94802-5 0  9990
2 49444  53.2177 209.1691 0001249  91.4713 268.6423 15.08840954238919
DISKSAT D               
1 67221U 25305C   26068.55257179  .00011599  00000+0  76841-3 0  9999
2 67221  45.0023 251.6339 0003712 319.2749  40.7848 15.07416577 12277
